STARLINK-30039
1 57468U 23107M   26061.16668981  .00958178  00000+0  40055-1 0  9995
2 57468  43.0007  18.6175 0001558 302.8679 149.5691 15.20157912  5810
